NORAD_CAT_ID,OBJECT_NAME,OBJECT_TYPE,EPOCH,MEAN_MOTION,ECCENTRICITY,INCLINATION,RA_OF_ASC_NODE,ARG_OF_PERICENTER,MEAN_ANOMALY,BSTAR,MEAN_MOTION_DOT,MEAN_MOTION_DDOT,TLE_LINE0,TLE_LINE1,TLE_LINE2,SEMIMAJOR_AXIS,PERIOD,APOGEE,PERIGEE,DECAYED
53779.0,STARLINK-4706,PAYLOAD,2024-03-04 11:38:51,15.0884764,0.0001862,53.2199,334.6905,103.9125,256.2074,0.00017131,2.44e-05,0.0,0 STARLINK-4706,1 53779U 22111G   24064.48532084  .00002440  00000-0  17131-3 0  9994,2 53779  53.2199 334.6905 0001862 103.9125 256.2074 15.08847640 82706,6917.857,95.437,541.01,538.434,0.0
53779.0,STARLINK-4706,PAYLOAD,2024-03-04 21:11:11,15.08826212,0.0001219,53.2174,332.9118,98.1986,261.9144,-0.00024381,-4.164e-05,0.0,0 STARLINK-4706,1 53779U 22111G   24064.88276977 -.00004164  00000-0 -24381-3 0  9996,2 53779  53.2174 332.9118 0001219  98.1986 261.9144 15.08826212 81951,6917.923,95.438,540.631,538.944,0.0
53779.0,STARLINK-4706,PAYLOAD,2024-03-04 22:46:34,15.08830971,0.0001526,53.2188,332.6111,105.9879,254.1282,-0.0001696,-2.985e-05,0.0,0 STARLINK-4706,1 53779U 22111G   24064.94900826 -.00002985  00000-0 -16960-3 0  9993,2 53779  53.2188 332.6111 0001526 105.9879 254.1282 15.08830971 82770,6917.908,95.438,540.829,538.717,0.0
53779.0,STARLINK-4706,PAYLOAD,2024-03-05 03:32:43,15.0883049,0.0001413,53.218,331.7202,110.4643,249.6501,-0.00010532,-1.963e-05,0.0,0 STARLINK-4706,1 53779U 22111G   24065.14772963 -.00001963  00000-0 -10532-3 0  9999,2 53779  53.2180 331.7202 0001413 110.4643 249.6501 15.08830490 82801,6917.909,95.438,540.752,538.797,0.0
53779.0,STARLINK-4706,PAYLOAD,2024-03-05 21:01:58,15.08838968,0.0001614,53.219,328.4485,116.0553,244.0605,0.00017167,2.445e-05,0.0,0 STARLINK-4706,1 53779U 22111G   24065.87637093  .00002445  00000-0  17167-3 0  9998,2 53779  53.2190 328.4485 0001614 116.0553 244.0605 15.08838968 82108,6917.884,95.438,540.865,538.632,0.0
53779.0,STARLINK-4706,PAYLOAD,2024-03-06 03:23:31,15.08839233,0.000144,53.219,327.2605,110.1672,249.9475,0.00012524,1.706e-05,0.0,0 STARLINK-4706,1 53779U 22111G   24066.14133213  .00001706  00000-0  12524-3 0  9995,2 53779  53.2190 327.2605 0001440 110.1672 249.9475 15.08839233 82951,6917.883,95.438,540.744,538.752,0.0
53779.0,STARLINK-4706,PAYLOAD,2024-03-07 03:14:17,15.0886019,0.0001115,53.2179,322.8023,87.0704,273.0416,0.00054394,8.384e-05,0.0,0 STARLINK-4706,1 53779U 22111G   24067.13492687  .00008384  00000-0  54394-3 0  9998,2 53779  53.2179 322.8023 0001115  87.0704 273.0416 15.08860190 82296,6917.819,95.436,540.455,538.912,0.0
53779.0,STARLINK-4706,PAYLOAD,2024-03-07 09:35:48,15.08907474,4.8e-05,53.2184,321.6122,59.2767,300.8272,0.0015902,0.00025158,0.0,0 STARLINK-4706,1 53779U 22111G   24067.39986453  .00025158  00000-0  15902-2 0  9994,2 53779  53.2184 321.6122 0000480  59.2767 300.8272 15.08907474 83144,6917.674,95.433,539.871,539.207,0.0
53779.0,STARLINK-4706,PAYLOAD,2024-03-08 01:29:41,15.08836532,0.000126,53.2179,318.6391,82.5542,277.5594,-0.0003935,-6.544e-05,0.0,0 STARLINK-4706,1 53779U 22111G   24068.06228027 -.00006544  00000-0 -39350-3 0  9999,2 53779  53.2179 318.6391 0001260  82.5542 277.5594 15.08836532 82433,6917.891,95.438,540.628,538.884,0.0
53779.0,STARLINK-4706,PAYLOAD,2024-03-08 09:26:36,15.08837499,0.0001229,53.217,317.1524,84.4706,275.6426,-0.00042452,-7.037e-05,0.0,0 STARLINK-4706,1 53779U 22111G   24068.39347770 -.00007037  00000-0 -42452-3 0  9997,2 53779  53.2170 317.1524 0001229  84.4706 275.6426 15.08837499 83295,6917.888,95.438,540.603,538.903,0.0
53779.0,STARLINK-4706,PAYLOAD,2024-03-09 02:55:50,15.08870448,0.0001441,53.217,313.8831,85.9388,274.1769,0.0018442,0.00029209,0.0,0 STARLINK-4706,1 53779U 22111G   24069.12211539  .00029209  00000-0  18442-2 0  9996,2 53779  53.2170 313.8831 0001441  85.9388 274.1769 15.08870448 82594,6917.787,95.436,540.649,538.655,0.0
53779.0,STARLINK-4706,PAYLOAD,2024-03-09 09:17:22,15.08887589,0.0001865,53.2166,312.6926,69.6614,290.4578,0.0020952,0.00033259,0.0,0 STARLINK-4706,1 53779U 22111G   24069.38707062  .00033259  00000-0  20952-2 0  9994,2 53779  53.2166 312.6926 0001865  69.6614 290.4578 15.08887589 83440,6917.735,95.435,540.89,538.31,0.0
53779.0,STARLINK-4706,PAYLOAD,2024-03-09 15:38:56,15.08825288,0.0001253,53.2165,311.5034,87.7607,272.3529,-0.00043399,-7.185e-05,0.0,0 STARLINK-4706,1 53779U 22111G   24069.65203766 -.00007185  00000-0 -43399-3 0  9998,2 53779  53.2165 311.5034 0001253  87.7607 272.3529 15.08825288 82678,6917.925,95.438,540.657,538.924,0.0
53779.0,STARLINK-4706,PAYLOAD,2024-03-10 09:08:11,15.0882613,0.000156,53.2164,308.2321,84.7,275.417,0.0014698,0.00023172,0.0,0 STARLINK-4706,1 53779U 22111G   24070.38069043  .00023172  00000-0  14698-2 0  9999,2 53779  53.2164 308.2321 0001560  84.7000 275.4170 15.08826130 83599,6917.923,95.438,540.867,538.709,0.0
53779.0,STARLINK-4706,PAYLOAD,2024-03-10 21:51:16,15.08840423,0.0001411,53.2149,305.8543,83.3269,276.7883,0.0011628,0.00018267,0.0,0 STARLINK-4706,1 53779U 22111G   24070.91061256  .00018267  00000-0  11628-2 0  9995,2 53779  53.2149 305.8543 0001411  83.3269 276.7883 15.08840423 82863,6917.879,95.438,540.72,538.768,0.0
53779.0,STARLINK-4706,PAYLOAD,2024-03-11 08:58:58,15.08852396,0.0001328,53.215,303.7728,81.6416,278.4727,0.00096014,0.00015031,0.0,0 STARLINK-4706,1 53779U 22111G   24071.37429025  .00015031  00000-0  96014-3 0  9997,2 53779  53.2150 303.7728 0001328  81.6416 278.4727 15.08852396 83745,6917.842,95.437,540.626,538.789,0.0
53779.0,STARLINK-4706,PAYLOAD,2024-03-11 21:42:04,15.0884092,0.000141,53.2151,301.3934,89.8424,270.273,0.00039134,5.946e-05,0.0,0 STARLINK-4706,1 53779U 22111G   24071.90421328  .00005946  00000-0  39134-3 0  9998,2 53779  53.2151 301.3934 0001410  89.8424 270.2730 15.08840920 83014,6917.878,95.437,540.718,538.767,0.0
53779.0,STARLINK-4706,PAYLOAD,2024-03-12 21:32:51,15.08841165,0.0001666,53.2148,296.9323,89.5498,270.5685,0.00039701,6.036e-05,0.0,0 STARLINK-4706,1 53779U 22111G   24072.89781705  .00006036  00000-0  39701-3 0  9996,2 53779  53.2148 296.9323 0001666  89.5498 270.5685 15.08841165 83971,6917.877,95.437,540.894,538.589,0.0
53779.0,STARLINK-4706,PAYLOAD,2024-03-13 00:43:37,15.08841546,0.0001636,53.2144,296.3377,89.2951,270.8228,0.00034834,5.26e-05,0.0,0 STARLINK-4706,1 53779U 22111G   24073.03029707  .00005260  00000-0  34834-3 0  9990,2 53779  53.2144 296.3377 0001636  89.2951 270.8228 15.08841546 83180,6917.876,95.437,540.872,538.609,0.0
53779.0,STARLINK-4706,PAYLOAD,2024-03-14 00:34:24,15.08842594,0.0001602,53.2135,291.8762,89.5801,270.5375,0.00020891,3.039e-05,0.0,0 STARLINK-4706,1 53779U 22111G   24074.02389752  .00003039  00000-0  20891-3 0  9999,2 53779  53.2135 291.8762 0001602  89.5801 270.5375 15.08842594 83339,6917.872,95.437,540.846,538.629,0.0
53779.0,STARLINK-4706,PAYLOAD,2024-03-14 21:14:25,15.08836695,0.0001516,53.2165,288.01,85.0813,275.0352,7.4008e-05,8.9e-06,0.0,0 STARLINK-4706,1 53779U 22111G   24074.88502022  .00000890  00000-0  74008-4 0  9992,2 53779  53.2165 288.0100 0001516  85.0813 275.0352 15.08836695 83468,6917.89,95.438,540.804,538.707,0.0
53779.0,STARLINK-4706,PAYLOAD,2024-03-15 22:40:35,15.0885245,0.0001363,53.2166,283.2507,78.9857,281.1288,-0.00027519,-4.666e-05,0.0,0 STARLINK-4706,1 53779U 22111G   24075.94485388 -.00004666  00000-0 -27519-3 0  9996,2 53779  53.2166 283.2507 0001363  78.9857 281.1288 15.08852450 84437,6917.842,95.437,540.65,538.764,0.0
53779.0,STARLINK-4706,PAYLOAD,2024-03-16 00:15:58,15.08850231,0.0001325,53.2167,282.954,79.0493,281.0648,-0.00018062,-3.162e-05,0.0,0 STARLINK-4706,1 53779U 22111G   24076.01109495 -.00003162  00000-0 -18062-3 0  9990,2 53779  53.2167 282.9540 0001325  79.0493 281.0648 15.08850231 83632,6917.849,95.437,540.631,538.798,0.0
53779.0,STARLINK-4706,PAYLOAD,2024-03-16 20:55:59,15.08842196,0.0001252,53.2157,279.0885,84.8307,275.2828,0.00015765,2.222e-05,0.0,0 STARLINK-4706,1 53779U 22111G   24076.87221995  .00002222  00000-0  15765-3 0  9995,2 53779  53.2157 279.0885 0001252  84.8307 275.2828 15.08842196 83767,6917.874,95.437,540.605,538.873,0.0
53779.0,STARLINK-4706,PAYLOAD,2024-03-17 12:49:51,15.08840255,0.0001279,53.2152,276.1158,84.5238,275.59,9.7115e-05,1.258e-05,0.0,0 STARLINK-4706,1 53779U 22111G   24077.53462115  .00001258  00000-0  97115-4 0  9998,2 53779  53.2152 276.1158 0001279  84.5238 275.5900 15.08840255 84671,6917.88,95.438,540.629,538.86,0.0
53779.0,STARLINK-4706,PAYLOAD,2024-03-17 20:46:47,15.0883683,0.0001169,53.2156,274.6289,96.5948,263.5177,5.8244e-05,6.39e-06,0.0,0 STARLINK-4706,1 53779U 22111G   24077.86582346  .00000639  00000-0  58244-4 0  9995,2 53779  53.2156 274.6289 0001169  96.5948 263.5177 15.08836830 83915,6917.89,95.438,540.564,538.946,0.0
53779.0,STARLINK-4706,PAYLOAD,2024-03-18 12:40:38,15.08839786,0.000115,53.2156,271.6553,97.0709,263.0414,9.9932e-05,1.303e-05,0.0,0 STARLINK-4706,1 53779U 22111G   24078.52822370  .00001303  00000-0  99932-4 0  9991,2 53779  53.2156 271.6553 0001150  97.0709 263.0414 15.08839786 84820,6917.881,95.438,540.542,538.95,0.0
53779.0,STARLINK-4706,PAYLOAD,2024-03-19 18:52:58,15.08842249,0.0001661,53.2161,266.0051,113.0986,247.0181,0.00013148,1.805e-05,0.0,0 STARLINK-4706,1 53779U 22111G   24079.78678255  .00001805  00000-0  13148-3 0  9992,2 53779  53.2161 266.0051 0001661 113.0986 247.0181 15.08842249 84203,6917.874,95.437,540.888,538.589,0.0
53779.0,STARLINK-4706,PAYLOAD,2024-03-20 12:22:10,15.08878204,0.0001466,53.216,262.7362,90.3484,269.7677,0.00048923,7.515e-05,0.0,0 STARLINK-4706,1 53779U 22111G   24080.51539561  .00007515  00000-0  48923-3 0  9994,2 53779  53.2160 262.7362 0001466  90.3484 269.7677 15.08878204 85126,6917.764,95.435,540.643,538.614,0.0
53779.0,STARLINK-4706,PAYLOAD,2024-03-20 18:43:44,15.08835247,9.78e-05,53.2158,261.547,87.7511,272.3593,-0.00019311,-3.359e-05,0.0,0 STARLINK-4706,1 53779U 22111G   24080.78037114 -.00003359  00000-0 -19311-3 0  9993,2 53779  53.2158 261.5470 0000978  87.7511 272.3593 15.08835247 85169,6917.895,95.438,540.436,539.083,0.0
